HELIOS 1B               
1 25977U 99064A   26094.27136102  .00003539  00000+0  39374-3 0  9999
2 25977  98.1669 357.2640 0001498  44.1939 315.9396 14.87806043689066
TERRA                   
1 25994U 99068A   26094.26120273  .00000777  00000+0  16741-3 0  9997
2 25994  97.9539 146.7122 0003671  99.1126 325.8657 14.61044406398816
SL-16 R/B               
1 26070U 00006B   26094.23499230  .00000115  00000+0  82879-4 0  9998
2 26070  71.0039  44.1205 0015238 149.7346 210.4661 14.15831083352178
TITAN 4B R/B            
1 26474U 00047B   26094.20382510  .00005857  00000+0  36271-3 0  9992
2 26474  67.9903 328.7553 0040348   5.5420 354.6167 15.09807059396764
ENVISAT                 
1 27386U 02009A   26094.28960774  .00000206  00000+0  80455-4 0  9994
2 27386  98.3771  47.2842 0001179  82.2846  85.8357 14.39046564262859
IDEFIX & ARIANE 42P R/B 
1 27422U 02021B   26094.22624895  .00000459  00000+0  19075-3 0  9993
2 27422  98.5899  32.5319 0012862 110.0594 250.1975 14.31044908247678
AQUA                    
1 27424U 02022A   26094.21168007  .00001687  00000+0  34606-3 0  9994
2 27424  98.4218  62.0500 0001395 115.5772 301.1356 14.62040526272462
CZ-4B R/B               
1 27432U 02024C   26094.18417244  .00000078  00000+0  63494-4 0  9992
2 27432  98.8782 147.4560 0049260 311.3970 115.8052 14.14552522232846
MIDORI II (ADEOS-II)    
1 27597U 02056A   26094.28525966  .00000502  00000+0  21490-3 0  9992
2 27597  98.7815  52.9471 0000402  21.1810 338.9388 14.29306166213957
H-2A R/B                
1 27601U 02056E   26093.96610419  .00000549  00000+0  20626-3 0  9991
2 27601  98.3248  53.3763 0071422  86.3216 314.4590 14.33779897217735
CZ-4B R/B               
1 28059U 03049C   26094.24007148  .00000584  00000+0  14506-3 0  9992
2 28059  98.6898  90.1516 0048672 152.5223 207.8562 14.55044855190318
CZ-2C R/B               
1 28222U 04012C   26094.16766776  .00092548  00000+0  83231-3 0  9997
2 28222  97.7167 161.9274 0013669 209.9173 150.1308 15.67822656208265
SL-16 R/B               
1 28353U 04021B   26094.26713521  .00000392  00000+0  22885-3 0  9997
2 28353  71.0013 178.8182 0005399 337.7154  22.3733 14.14599793126456
CZ-4B R/B               
1 28415U 04035C   26094.10057608  .00015142  00000+0  52377-3 0  9999
2 28415  97.3449 128.0403 0030281 236.4102 123.4247 15.29539324183792
CZ-2C R/B               
1 28480U 04046B   26094.21891237  .00000279  00000+0  11819-3 0  9990
2 28480  98.1976   7.6121 0140634  79.4714 282.2277 14.27002608112140
ARIANE 5 R/B            
1 28499U 04049H   26094.03016544  .00001512  00000+0  17273-3 0  9994
2 28499  98.2664 263.4426 0082815 268.9464  90.2261 14.85317938149552
CZ-2D R/B               
1 28738U 05024B   26094.02537417  .00075160  00000+0  83606-3 0  9993
2 28738  97.3569 110.1424 0001832 282.0068  78.0984 15.62633125143730
